{
  "parcels": [
    {
      "parcelId": "100000000004",
      "address": {
        "name": "User 4",
        "street": "Street 4",
        "number": "5",
        "city": "Nitra",
        "postcode": "94901"
      }
    },
    {
      "parcelId": "100000000009",
      "address": {
        "name": "User 9",
        "street": "Street 9",
        "number": "10",
        "city": "Nitra",
        "postcode": "94901"
      }
    },
    {
      "parcelId": "100000000014",
      "address": {
        "name": "User 14",
        "street": "Street 14",
        "number": "15",
        "city": "Nitra",
        "postcode": "94901"
      }
    },
    {
      "parcelId": "100000000019",
      "address": {
        "name": "User 19",
        "street": "Street 19",
        "number": "20",
        "city": "Nitra",
        "postcode": "94901"
      }
    },
    {
      "parcelId": "100000000024",
      "address": {
        "name": "User 24",
        "street": "Street 24",
        "number": "25",
        "city": "Nitra",
        "postcode": "94901"
      }
    },
    {
      "parcelId": "100000000029",
      "address": {
        "name": "User 29",
        "street": "Street 29",
        "number": "30",
        "city": "Nitra",
        "postcode": "94901"
      }
    },
    {
      "parcelId": "100000000034",
      "address": {
        "name": "User 34",
        "street": "Street 34",
        "number": "35",
        "city": "Nitra",
        "postcode": "94901"
      }
    },
    {
      "parcelId": "100000000039",
      "address": {
        "name": "User 39",
        "street": "Street 39",
        "number": "40",
        "city": "Nitra",
        "postcode": "94901"
      }
    },
    {
      "parcelId": "100000000044",
      "address": {
        "name": "User 44",
        "street": "Street 44",
        "number": "45",
        "city": "Nitra",
        "postcode": "94901"
      }
    },
    {
      "parcelId": "100000000049",
      "address": {
        "name": "User 49",
        "street": "Street 49",
        "number": "50",
        "city": "Nitra",
        "postcode": "94901"
      }
    },
    {
      "parcelId": "100000000054",
      "address": {
        "name": "User 54",
        "street": "Street 54",
        "number": "55",
        "city": "Nitra",
        "postcode": "94901"
      }
    },
    {
      "parcelId": "100000000059",
      "address": {
        "name": "User 59",
        "street": "Street 59",
        "number": "60",
        "city": "Nitra",
        "postcode": "94901"
      }
    },
    {
      "parcelId": "100000000064",
      "address": {
        "name": "User 64",
        "street": "Street 64",
        "number": "65",
        "city": "Nitra",
        "postcode": "94901"
      }
    },
    {
      "parcelId": "100000000069",
      "address": {
        "name": "User 69",
        "street": "Street 69",
        "number": "70",
        "city": "Nitra",
        "postcode": "94901"
      }
    },
    {
      "parcelId": "100000000074",
      "address": {
        "name": "User 74",
        "street": "Street 74",
        "number": "75",
        "city": "Nitra",
        "postcode": "94901"
      }
    },
    {
      "parcelId": "100000000079",
      "address": {
        "name": "User 79",
        "street": "Street 79",
        "number": "80",
        "city": "Nitra",
        "postcode": "94901"
      }
    },
    {
      "parcelId": "100000000084",
      "address": {
        "name": "User 84",
        "street": "Street 84",
        "number": "85",
        "city": "Nitra",
        "postcode": "94901"
      }
    },
    {
      "parcelId": "100000000089",
      "address": {
        "name": "User 89",
        "street": "Street 89",
        "number": "90",
        "city": "Nitra",
        "postcode": "94901"
      }
    },
    {
      "parcelId": "100000000094",
      "address": {
        "name": "User 94",
        "street": "Street 94",
        "number": "95",
        "city": "Nitra",
        "postcode": "94901"
      }
    },
    {
      "parcelId": "100000000099",
      "address": {
        "name": "User 99",
        "street": "Street 99",
        "number": "100",
        "city": "Nitra",
        "postcode": "94901"
      }
    },
    {
      "parcelId": "100000000104",
      "address": {
        "name": "User 104",
        "street": "Street 104",
        "number": "105",
        "city": "Nitra",
        "postcode": "94901"
      }
    },
    {
      "parcelId": "100000000109",
      "address": {
        "name": "User 109",
        "street": "Street 109",
        "number": "110",
        "city": "Nitra",
        "postcode": "94901"
      }
    },
    {
      "parcelId": "100000000114",
      "address": {
        "name": "User 114",
        "street": "Street 114",
        "number": "115",
        "city": "Nitra",
        "postcode": "94901"
      }
    },
    {
      "parcelId": "100000000119",
      "address": {
        "name": "User 119",
        "street": "Street 119",
        "number": "120",
        "city": "Nitra",
        "postcode": "94901"
      }
    },
    {
      "parcelId": "100000000124",
      "address": {
        "name": "User 124",
        "street": "Street 124",
        "number": "125",
        "city": "Nitra",
        "postcode": "94901"
      }
    },
    {
      "parcelId": "100000000129",
      "address": {
        "name": "User 129",
        "street": "Street 129",
        "number": "130",
        "city": "Nitra",
        "postcode": "94901"
      }
    },
    {
      "parcelId": "100000000134",
      "address": {
        "name": "User 134",
        "street": "Street 134",
        "number": "135",
        "city": "Nitra",
        "postcode": "94901"
      }
    },
    {
      "parcelId": "100000000139",
      "address": {
        "name": "User 139",
        "street": "Street 139",
        "number": "140",
        "city": "Nitra",
        "postcode": "94901"
      }
    },
    {
      "parcelId": "100000000144",
      "address": {
        "name": "User 144",
        "street": "Street 144",
        "number": "145",
        "city": "Nitra",
        "postcode": "94901"
      }
    },
    {
      "parcelId": "100000000149",
      "address": {
        "name": "User 149",
        "street": "Street 149",
        "number": "150",
        "city": "Nitra",
        "postcode": "94901"
      }
    },
    {
      "parcelId": "100000000154",
      "address": {
        "name": "User 154",
        "street": "Street 154",
        "number": "155",
        "city": "Nitra",
        "postcode": "94901"
      }
    },
    {
      "parcelId": "100000000159",
      "address": {
        "name": "User 159",
        "street": "Street 159",
        "number": "160",
        "city": "Nitra",
        "postcode": "94901"
      }
    },
    {
      "parcelId": "100000000164",
      "address": {
        "name": "User 164",
        "street": "Street 164",
        "number": "165",
        "city": "Nitra",
        "postcode": "94901"
      }
    },
    {
      "parcelId": "100000000169",
      "address": {
        "name": "User 169",
        "street": "Street 169",
        "number": "170",
        "city": "Nitra",
        "postcode": "94901"
      }
    },
    {
      "parcelId": "100000000174",
      "address": {
        "name": "User 174",
        "street": "Street 174",
        "number": "175",
        "city": "Nitra",
        "postcode": "94901"
      }
    },
    {
      "parcelId": "100000000179",
      "address": {
        "name": "User 179",
        "street": "Street 179",
        "number": "180",
        "city": "Nitra",
        "postcode": "94901"
      }
    },
    {
      "parcelId": "100000000184",
      "address": {
        "name": "User 184",
        "street": "Street 184",
        "number": "185",
        "city": "Nitra",
        "postcode": "94901"
      }
    },
    {
      "parcelId": "100000000189",
      "address": {
        "name": "User 189",
        "street": "Street 189",
        "number": "190",
        "city": "Nitra",
        "postcode": "94901"
      }
    },
    {
      "parcelId": "100000000194",
      "address": {
        "name": "User 194",
        "street": "Street 194",
        "number": "195",
        "city": "Nitra",
        "postcode": "94901"
      }
    },
    {
      "parcelId": "100000000199",
      "address": {
        "name": "User 199",
        "street": "Street 199",
        "number": "200",
        "city": "Nitra",
        "postcode": "94901"
      }
    },
    {
      "parcelId": "100000000204",
      "address": {
        "name": "User 204",
        "street": "Street 204",
        "number": "205",
        "city": "Nitra",
        "postcode": "94901"
      }
    },
    {
      "parcelId": "100000000209",
      "address": {
        "name": "User 209",
        "street": "Street 209",
        "number": "210",
        "city": "Nitra",
        "postcode": "94901"
      }
    },
    {
      "parcelId": "100000000214",
      "address": {
        "name": "User 214",
        "street": "Street 214",
        "number": "215",
        "city": "Nitra",
        "postcode": "94901"
      }
    },
    {
      "parcelId": "100000000219",
      "address": {
        "name": "User 219",
        "street": "Street 219",
        "number": "220",
        "city": "Nitra",
        "postcode": "94901"
      }
    },
    {
      "parcelId": "100000000224",
      "address": {
        "name": "User 224",
        "street": "Street 224",
        "number": "225",
        "city": "Nitra",
        "postcode": "94901"
      }
    },
    {
      "parcelId": "100000000229",
      "address": {
        "name": "User 229",
        "street": "Street 229",
        "number": "230",
        "city": "Nitra",
        "postcode": "94901"
      }
    },
    {
      "parcelId": "100000000234",
      "address": {
        "name": "User 234",
        "street": "Street 234",
        "number": "235",
        "city": "Nitra",
        "postcode": "94901"
      }
    },
    {
      "parcelId": "100000000239",
      "address": {
        "name": "User 239",
        "street": "Street 239",
        "number": "240",
        "city": "Nitra",
        "postcode": "94901"
      }
    },
    {
      "parcelId": "100000000244",
      "address": {
        "name": "User 244",
        "street": "Street 244",
        "number": "245",
        "city": "Nitra",
        "postcode": "94901"
      }
    },
    {
      "parcelId": "100000000249",
      "address": {
        "name": "User 249",
        "street": "Street 249",
        "number": "250",
        "city": "Nitra",
        "postcode": "94901"
      }
    },
    {
      "parcelId": "100000000254",
      "address": {
        "name": "User 254",
        "street": "Street 254",
        "number": "255",
        "city": "Nitra",
        "postcode": "94901"
      }
    },
    {
      "parcelId": "100000000259",
      "address": {
        "name": "User 259",
        "street": "Street 259",
        "number": "260",
        "city": "Nitra",
        "postcode": "94901"
      }
    },
    {
      "parcelId": "100000000264",
      "address": {
        "name": "User 264",
        "street": "Street 264",
        "number": "265",
        "city": "Nitra",
        "postcode": "94901"
      }
    },
    {
      "parcelId": "100000000269",
      "address": {
        "name": "User 269",
        "street": "Street 269",
        "number": "270",
        "city": "Nitra",
        "postcode": "94901"
      }
    },
    {
      "parcelId": "100000000274",
      "address": {
        "name": "User 274",
        "street": "Street 274",
        "number": "275",
        "city": "Nitra",
        "postcode": "94901"
      }
    },
    {
      "parcelId": "100000000279",
      "address": {
        "name": "User 279",
        "street": "Street 279",
        "number": "280",
        "city": "Nitra",
        "postcode": "94901"
      }
    },
    {
      "parcelId": "100000000284",
      "address": {
        "name": "User 284",
        "street": "Street 284",
        "number": "285",
        "city": "Nitra",
        "postcode": "94901"
      }
    },
    {
      "parcelId": "100000000289",
      "address": {
        "name": "User 289",
        "street": "Street 289",
        "number": "290",
        "city": "Nitra",
        "postcode": "94901"
      }
    },
    {
      "parcelId": "100000000294",
      "address": {
        "name": "User 294",
        "street": "Street 294",
        "number": "295",
        "city": "Nitra",
        "postcode": "94901"
      }
    },
    {
      "parcelId": "100000000299",
      "address": {
        "name": "User 299",
        "street": "Street 299",
        "number": "300",
        "city": "Nitra",
        "postcode": "94901"
      }
    },
    {
      "parcelId": "100000000304",
      "address": {
        "name": "User 304",
        "street": "Street 304",
        "number": "305",
        "city": "Nitra",
        "postcode": "94901"
      }
    },
    {
      "parcelId": "100000000309",
      "address": {
        "name": "User 309",
        "street": "Street 309",
        "number": "310",
        "city": "Nitra",
        "postcode": "94901"
      }
    },
    {
      "parcelId": "100000000314",
      "address": {
        "name": "User 314",
        "street": "Street 314",
        "number": "315",
        "city": "Nitra",
        "postcode": "94901"
      }
    },
    {
      "parcelId": "100000000319",
      "address": {
        "name": "User 319",
        "street": "Street 319",
        "number": "320",
        "city": "Nitra",
        "postcode": "94901"
      }
    },
    {
      "parcelId": "100000000324",
      "address": {
        "name": "User 324",
        "street": "Street 324",
        "number": "325",
        "city": "Nitra",
        "postcode": "94901"
      }
    },
    {
      "parcelId": "100000000329",
      "address": {
        "name": "User 329",
        "street": "Street 329",
        "number": "330",
        "city": "Nitra",
        "postcode": "94901"
      }
    },
    {
      "parcelId": "100000000334",
      "address": {
        "name": "User 334",
        "street": "Street 334",
        "number": "335",
        "city": "Nitra",
        "postcode": "94901"
      }
    },
    {
      "parcelId": "100000000339",
      "address": {
        "name": "User 339",
        "street": "Street 339",
        "number": "340",
        "city": "Nitra",
        "postcode": "94901"
      }
    },
    {
      "parcelId": "100000000344",
      "address": {
        "name": "User 344",
        "street": "Street 344",
        "number": "345",
        "city": "Nitra",
        "postcode": "94901"
      }
    },
    {
      "parcelId": "100000000349",
      "address": {
        "name": "User 349",
        "street": "Street 349",
        "number": "350",
        "city": "Nitra",
        "postcode": "94901"
      }
    },
    {
      "parcelId": "100000000354",
      "address": {
        "name": "User 354",
        "street": "Street 354",
        "number": "355",
        "city": "Nitra",
        "postcode": "94901"
      }
    },
    {
      "parcelId": "100000000359",
      "address": {
        "name": "User 359",
        "street": "Street 359",
        "number": "360",
        "city": "Nitra",
        "postcode": "94901"
      }
    },
    {
      "parcelId": "100000000364",
      "address": {
        "name": "User 364",
        "street": "Street 364",
        "number": "365",
        "city": "Nitra",
        "postcode": "94901"
      }
    },
    {
      "parcelId": "100000000369",
      "address": {
        "name": "User 369",
        "street": "Street 369",
        "number": "370",
        "city": "Nitra",
        "postcode": "94901"
      }
    },
    {
      "parcelId": "100000000374",
      "address": {
        "name": "User 374",
        "street": "Street 374",
        "number": "375",
        "city": "Nitra",
        "postcode": "94901"
      }
    },
    {
      "parcelId": "100000000379",
      "address": {
        "name": "User 379",
        "street": "Street 379",
        "number": "380",
        "city": "Nitra",
        "postcode": "94901"
      }
    },
    {
      "parcelId": "100000000384",
      "address": {
        "name": "User 384",
        "street": "Street 384",
        "number": "385",
        "city": "Nitra",
        "postcode": "94901"
      }
    },
    {
      "parcelId": "100000000389",
      "address": {
        "name": "User 389",
        "street": "Street 389",
        "number": "390",
        "city": "Nitra",
        "postcode": "94901"
      }
    },
    {
      "parcelId": "100000000394",
      "address": {
        "name": "User 394",
        "street": "Street 394",
        "number": "395",
        "city": "Nitra",
        "postcode": "94901"
      }
    },
    {
      "parcelId": "100000000399",
      "address": {
        "name": "User 399",
        "street": "Street 399",
        "number": "400",
        "city": "Nitra",
        "postcode": "94901"
      }
    },
    {
      "parcelId": "100000000404",
      "address": {
        "name": "User 404",
        "street": "Street 404",
        "number": "405",
        "city": "Nitra",
        "postcode": "94901"
      }
    },
    {
      "parcelId": "100000000409",
      "address": {
        "name": "User 409",
        "street": "Street 409",
        "number": "410",
        "city": "Nitra",
        "postcode": "94901"
      }
    },
    {
      "parcelId": "100000000414",
      "address": {
        "name": "User 414",
        "street": "Street 414",
        "number": "415",
        "city": "Nitra",
        "postcode": "94901"
      }
    },
    {
      "parcelId": "100000000419",
      "address": {
        "name": "User 419",
        "street": "Street 419",
        "number": "420",
        "city": "Nitra",
        "postcode": "94901"
      }
    },
    {
      "parcelId": "100000000424",
      "address": {
        "name": "User 424",
        "street": "Street 424",
        "number": "425",
        "city": "Nitra",
        "postcode": "94901"
      }
    },
    {
      "parcelId": "100000000429",
      "address": {
        "name": "User 429",
        "street": "Street 429",
        "number": "430",
        "city": "Nitra",
        "postcode": "94901"
      }
    },
    {
      "parcelId": "100000000434",
      "address": {
        "name": "User 434",
        "street": "Street 434",
        "number": "435",
        "city": "Nitra",
        "postcode": "94901"
      }
    },
    {
      "parcelId": "100000000439",
      "address": {
        "name": "User 439",
        "street": "Street 439",
        "number": "440",
        "city": "Nitra",
        "postcode": "94901"
      }
    },
    {
      "parcelId": "100000000444",
      "address": {
        "name": "User 444",
        "street": "Street 444",
        "number": "445",
        "city": "Nitra",
        "postcode": "94901"
      }
    },
    {
      "parcelId": "100000000449",
      "address": {
        "name": "User 449",
        "street": "Street 449",
        "number": "450",
        "city": "Nitra",
        "postcode": "94901"
      }
    },
    {
      "parcelId": "100000000454",
      "address": {
        "name": "User 454",
        "street": "Street 454",
        "number": "455",
        "city": "Nitra",
        "postcode": "94901"
      }
    },
    {
      "parcelId": "100000000459",
      "address": {
        "name": "User 459",
        "street": "Street 459",
        "number": "460",
        "city": "Nitra",
        "postcode": "94901"
      }
    },
    {
      "parcelId": "100000000464",
      "address": {
        "name": "User 464",
        "street": "Street 464",
        "number": "465",
        "city": "Nitra",
        "postcode": "94901"
      }
    },
    {
      "parcelId": "100000000469",
      "address": {
        "name": "User 469",
        "street": "Street 469",
        "number": "470",
        "city": "Nitra",
        "postcode": "94901"
      }
    },
    {
      "parcelId": "100000000474",
      "address": {
        "name": "User 474",
        "street": "Street 474",
        "number": "475",
        "city": "Nitra",
        "postcode": "94901"
      }
    },
    {
      "parcelId": "100000000479",
      "address": {
        "name": "User 479",
        "street": "Street 479",
        "number": "480",
        "city": "Nitra",
        "postcode": "94901"
      }
    },
    {
      "parcelId": "100000000484",
      "address": {
        "name": "User 484",
        "street": "Street 484",
        "number": "485",
        "city": "Nitra",
        "postcode": "94901"
      }
    },
    {
      "parcelId": "100000000489",
      "address": {
        "name": "User 489",
        "street": "Street 489",
        "number": "490",
        "city": "Nitra",
        "postcode": "94901"
      }
    },
    {
      "parcelId": "100000000494",
      "address": {
        "name": "User 494",
        "street": "Street 494",
        "number": "495",
        "city": "Nitra",
        "postcode": "94901"
      }
    },
    {
      "parcelId": "100000000499",
      "address": {
        "name": "User 499",
        "street": "Street 499",
        "number": "500",
        "city": "Nitra",
        "postcode": "94901"
      }
    },
    {
      "parcelId": "100000000504",
      "address": {
        "name": "User 504",
        "street": "Street 504",
        "number": "505",
        "city": "Nitra",
        "postcode": "94901"
      }
    },
    {
      "parcelId": "100000000509",
      "address": {
        "name": "User 509",
        "street": "Street 509",
        "number": "510",
        "city": "Nitra",
        "postcode": "94901"
      }
    },
    {
      "parcelId": "100000000514",
      "address": {
        "name": "User 514",
        "street": "Street 514",
        "number": "515",
        "city": "Nitra",
        "postcode": "94901"
      }
    },
    {
      "parcelId": "100000000519",
      "address": {
        "name": "User 519",
        "street": "Street 519",
        "number": "520",
        "city": "Nitra",
        "postcode": "94901"
      }
    },
    {
      "parcelId": "100000000524",
      "address": {
        "name": "User 524",
        "street": "Street 524",
        "number": "525",
        "city": "Nitra",
        "postcode": "94901"
      }
    },
    {
      "parcelId": "100000000529",
      "address": {
        "name": "User 529",
        "street": "Street 529",
        "number": "530",
        "city": "Nitra",
        "postcode": "94901"
      }
    },
    {
      "parcelId": "100000000534",
      "address": {
        "name": "User 534",
        "street": "Street 534",
        "number": "535",
        "city": "Nitra",
        "postcode": "94901"
      }
    },
    {
      "parcelId": "100000000539",
      "address": {
        "name": "User 539",
        "street": "Street 539",
        "number": "540",
        "city": "Nitra",
        "postcode": "94901"
      }
    },
    {
      "parcelId": "100000000544",
      "address": {
        "name": "User 544",
        "street": "Street 544",
        "number": "545",
        "city": "Nitra",
        "postcode": "94901"
      }
    },
    {
      "parcelId": "100000000549",
      "address": {
        "name": "User 549",
        "street": "Street 549",
        "number": "550",
        "city": "Nitra",
        "postcode": "94901"
      }
    },
    {
      "parcelId": "100000000554",
      "address": {
        "name": "User 554",
        "street": "Street 554",
        "number": "555",
        "city": "Nitra",
        "postcode": "94901"
      }
    },
    {
      "parcelId": "100000000559",
      "address": {
        "name": "User 559",
        "street": "Street 559",
        "number": "560",
        "city": "Nitra",
        "postcode": "94901"
      }
    },
    {
      "parcelId": "100000000564",
      "address": {
        "name": "User 564",
        "street": "Street 564",
        "number": "565",
        "city": "Nitra",
        "postcode": "94901"
      }
    },
    {
      "parcelId": "100000000569",
      "address": {
        "name": "User 569",
        "street": "Street 569",
        "number": "570",
        "city": "Nitra",
        "postcode": "94901"
      }
    },
    {
      "parcelId": "100000000574",
      "address": {
        "name": "User 574",
        "street": "Street 574",
        "number": "575",
        "city": "Nitra",
        "postcode": "94901"
      }
    },
    {
      "parcelId": "100000000579",
      "address": {
        "name": "User 579",
        "street": "Street 579",
        "number": "580",
        "city": "Nitra",
        "postcode": "94901"
      }
    },
    {
      "parcelId": "100000000584",
      "address": {
        "name": "User 584",
        "street": "Street 584",
        "number": "585",
        "city": "Nitra",
        "postcode": "94901"
      }
    },
    {
      "parcelId": "100000000589",
      "address": {
        "name": "User 589",
        "street": "Street 589",
        "number": "590",
        "city": "Nitra",
        "postcode": "94901"
      }
    },
    {
      "parcelId": "100000000594",
      "address": {
        "name": "User 594",
        "street": "Street 594",
        "number": "595",
        "city": "Nitra",
        "postcode": "94901"
      }
    },
    {
      "parcelId": "100000000599",
      "address": {
        "name": "User 599",
        "street": "Street 599",
        "number": "600",
        "city": "Nitra",
        "postcode": "94901"
      }
    },
    {
      "parcelId": "100000000604",
      "address": {
        "name": "User 604",
        "street": "Street 604",
        "number": "605",
        "city": "Nitra",
        "postcode": "94901"
      }
    },
    {
      "parcelId": "100000000609",
      "address": {
        "name": "User 609",
        "street": "Street 609",
        "number": "610",
        "city": "Nitra",
        "postcode": "94901"
      }
    },
    {
      "parcelId": "100000000614",
      "address": {
        "name": "User 614",
        "street": "Street 614",
        "number": "615",
        "city": "Nitra",
        "postcode": "94901"
      }
    },
    {
      "parcelId": "100000000619",
      "address": {
        "name": "User 619",
        "street": "Street 619",
        "number": "620",
        "city": "Nitra",
        "postcode": "94901"
      }
    },
    {
      "parcelId": "100000000624",
      "address": {
        "name": "User 624",
        "street": "Street 624",
        "number": "625",
        "city": "Nitra",
        "postcode": "94901"
      }
    },
    {
      "parcelId": "100000000629",
      "address": {
        "name": "User 629",
        "street": "Street 629",
        "number": "630",
        "city": "Nitra",
        "postcode": "94901"
      }
    },
    {
      "parcelId": "100000000634",
      "address": {
        "name": "User 634",
        "street": "Street 634",
        "number": "635",
        "city": "Nitra",
        "postcode": "94901"
      }
    },
    {
      "parcelId": "100000000639",
      "address": {
        "name": "User 639",
        "street": "Street 639",
        "number": "640",
        "city": "Nitra",
        "postcode": "94901"
      }
    },
    {
      "parcelId": "100000000644",
      "address": {
        "name": "User 644",
        "street": "Street 644",
        "number": "645",
        "city": "Nitra",
        "postcode": "94901"
      }
    },
    {
      "parcelId": "100000000649",
      "address": {
        "name": "User 649",
        "street": "Street 649",
        "number": "650",
        "city": "Nitra",
        "postcode": "94901"
      }
    },
    {
      "parcelId": "100000000654",
      "address": {
        "name": "User 654",
        "street": "Street 654",
        "number": "655",
        "city": "Nitra",
        "postcode": "94901"
      }
    },
    {
      "parcelId": "100000000659",
      "address": {
        "name": "User 659",
        "street": "Street 659",
        "number": "660",
        "city": "Nitra",
        "postcode": "94901"
      }
    },
    {
      "parcelId": "100000000664",
      "address": {
        "name": "User 664",
        "street": "Street 664",
        "number": "665",
        "city": "Nitra",
        "postcode": "94901"
      }
    },
    {
      "parcelId": "100000000669",
      "address": {
        "name": "User 669",
        "street": "Street 669",
        "number": "670",
        "city": "Nitra",
        "postcode": "94901"
      }
    },
    {
      "parcelId": "100000000674",
      "address": {
        "name": "User 674",
        "street": "Street 674",
        "number": "675",
        "city": "Nitra",
        "postcode": "94901"
      }
    },
    {
      "parcelId": "100000000679",
      "address": {
        "name": "User 679",
        "street": "Street 679",
        "number": "680",
        "city": "Nitra",
        "postcode": "94901"
      }
    },
    {
      "parcelId": "100000000684",
      "address": {
        "name": "User 684",
        "street": "Street 684",
        "number": "685",
        "city": "Nitra",
        "postcode": "94901"
      }
    },
    {
      "parcelId": "100000000689",
      "address": {
        "name": "User 689",
        "street": "Street 689",
        "number": "690",
        "city": "Nitra",
        "postcode": "94901"
      }
    },
    {
      "parcelId": "100000000694",
      "address": {
        "name": "User 694",
        "street": "Street 694",
        "number": "695",
        "city": "Nitra",
        "postcode": "94901"
      }
    },
    {
      "parcelId": "100000000699",
      "address": {
        "name": "User 699",
        "street": "Street 699",
        "number": "700",
        "city": "Nitra",
        "postcode": "94901"
      }
    },
    {
      "parcelId": "100000000704",
      "address": {
        "name": "User 704",
        "street": "Street 704",
        "number": "705",
        "city": "Nitra",
        "postcode": "94901"
      }
    },
    {
      "parcelId": "100000000709",
      "address": {
        "name": "User 709",
        "street": "Street 709",
        "number": "710",
        "city": "Nitra",
        "postcode": "94901"
      }
    },
    {
      "parcelId": "100000000714",
      "address": {
        "name": "User 714",
        "street": "Street 714",
        "number": "715",
        "city": "Nitra",
        "postcode": "94901"
      }
    },
    {
      "parcelId": "100000000719",
      "address": {
        "name": "User 719",
        "street": "Street 719",
        "number": "720",
        "city": "Nitra",
        "postcode": "94901"
      }
    },
    {
      "parcelId": "100000000724",
      "address": {
        "name": "User 724",
        "street": "Street 724",
        "number": "725",
        "city": "Nitra",
        "postcode": "94901"
      }
    },
    {
      "parcelId": "100000000729",
      "address": {
        "name": "User 729",
        "street": "Street 729",
        "number": "730",
        "city": "Nitra",
        "postcode": "94901"
      }
    },
    {
      "parcelId": "100000000734",
      "address": {
        "name": "User 734",
        "street": "Street 734",
        "number": "735",
        "city": "Nitra",
        "postcode": "94901"
      }
    },
    {
      "parcelId": "100000000739",
      "address": {
        "name": "User 739",
        "street": "Street 739",
        "number": "740",
        "city": "Nitra",
        "postcode": "94901"
      }
    },
    {
      "parcelId": "100000000744",
      "address": {
        "name": "User 744",
        "street": "Street 744",
        "number": "745",
        "city": "Nitra",
        "postcode": "94901"
      }
    },
    {
      "parcelId": "100000000749",
      "address": {
        "name": "User 749",
        "street": "Street 749",
        "number": "750",
        "city": "Nitra",
        "postcode": "94901"
      }
    },
    {
      "parcelId": "100000000754",
      "address": {
        "name": "User 754",
        "street": "Street 754",
        "number": "755",
        "city": "Nitra",
        "postcode": "94901"
      }
    },
    {
      "parcelId": "100000000759",
      "address": {
        "name": "User 759",
        "street": "Street 759",
        "number": "760",
        "city": "Nitra",
        "postcode": "94901"
      }
    },
    {
      "parcelId": "100000000764",
      "address": {
        "name": "User 764",
        "street": "Street 764",
        "number": "765",
        "city": "Nitra",
        "postcode": "94901"
      }
    },
    {
      "parcelId": "100000000769",
      "address": {
        "name": "User 769",
        "street": "Street 769",
        "number": "770",
        "city": "Nitra",
        "postcode": "94901"
      }
    },
    {
      "parcelId": "100000000774",
      "address": {
        "name": "User 774",
        "street": "Street 774",
        "number": "775",
        "city": "Nitra",
        "postcode": "94901"
      }
    },
    {
      "parcelId": "100000000779",
      "address": {
        "name": "User 779",
        "street": "Street 779",
        "number": "780",
        "city": "Nitra",
        "postcode": "94901"
      }
    },
    {
      "parcelId": "100000000784",
      "address": {
        "name": "User 784",
        "street": "Street 784",
        "number": "785",
        "city": "Nitra",
        "postcode": "94901"
      }
    },
    {
      "parcelId": "100000000789",
      "address": {
        "name": "User 789",
        "street": "Street 789",
        "number": "790",
        "city": "Nitra",
        "postcode": "94901"
      }
    },
    {
      "parcelId": "100000000794",
      "address": {
        "name": "User 794",
        "street": "Street 794",
        "number": "795",
        "city": "Nitra",
        "postcode": "94901"
      }
    },
    {
      "parcelId": "100000000799",
      "address": {
        "name": "User 799",
        "street": "Street 799",
        "number": "800",
        "city": "Nitra",
        "postcode": "94901"
      }
    },
    {
      "parcelId": "100000000804",
      "address": {
        "name": "User 804",
        "street": "Street 804",
        "number": "805",
        "city": "Nitra",
        "postcode": "94901"
      }
    },
    {
      "parcelId": "100000000809",
      "address": {
        "name": "User 809",
        "street": "Street 809",
        "number": "810",
        "city": "Nitra",
        "postcode": "94901"
      }
    },
    {
      "parcelId": "100000000814",
      "address": {
        "name": "User 814",
        "street": "Street 814",
        "number": "815",
        "city": "Nitra",
        "postcode": "94901"
      }
    },
    {
      "parcelId": "100000000819",
      "address": {
        "name": "User 819",
        "street": "Street 819",
        "number": "820",
        "city": "Nitra",
        "postcode": "94901"
      }
    },
    {
      "parcelId": "100000000824",
      "address": {
        "name": "User 824",
        "street": "Street 824",
        "number": "825",
        "city": "Nitra",
        "postcode": "94901"
      }
    },
    {
      "parcelId": "100000000829",
      "address": {
        "name": "User 829",
        "street": "Street 829",
        "number": "830",
        "city": "Nitra",
        "postcode": "94901"
      }
    },
    {
      "parcelId": "100000000834",
      "address": {
        "name": "User 834",
        "street": "Street 834",
        "number": "835",
        "city": "Nitra",
        "postcode": "94901"
      }
    },
    {
      "parcelId": "100000000839",
      "address": {
        "name": "User 839",
        "street": "Street 839",
        "number": "840",
        "city": "Nitra",
        "postcode": "94901"
      }
    },
    {
      "parcelId": "100000000844",
      "address": {
        "name": "User 844",
        "street": "Street 844",
        "number": "845",
        "city": "Nitra",
        "postcode": "94901"
      }
    },
    {
      "parcelId": "100000000849",
      "address": {
        "name": "User 849",
        "street": "Street 849",
        "number": "850",
        "city": "Nitra",
        "postcode": "94901"
      }
    },
    {
      "parcelId": "100000000854",
      "address": {
        "name": "User 854",
        "street": "Street 854",
        "number": "855",
        "city": "Nitra",
        "postcode": "94901"
      }
    },
    {
      "parcelId": "100000000859",
      "address": {
        "name": "User 859",
        "street": "Street 859",
        "number": "860",
        "city": "Nitra",
        "postcode": "94901"
      }
    },
    {
      "parcelId": "100000000864",
      "address": {
        "name": "User 864",
        "street": "Street 864",
        "number": "865",
        "city": "Nitra",
        "postcode": "94901"
      }
    },
    {
      "parcelId": "100000000869",
      "address": {
        "name": "User 869",
        "street": "Street 869",
        "number": "870",
        "city": "Nitra",
        "postcode": "94901"
      }
    },
    {
      "parcelId": "100000000874",
      "address": {
        "name": "User 874",
        "street": "Street 874",
        "number": "875",
        "city": "Nitra",
        "postcode": "94901"
      }
    },
    {
      "parcelId": "100000000879",
      "address": {
        "name": "User 879",
        "street": "Street 879",
        "number": "880",
        "city": "Nitra",
        "postcode": "94901"
      }
    },
    {
      "parcelId": "100000000884",
      "address": {
        "name": "User 884",
        "street": "Street 884",
        "number": "885",
        "city": "Nitra",
        "postcode": "94901"
      }
    },
    {
      "parcelId": "100000000889",
      "address": {
        "name": "User 889",
        "street": "Street 889",
        "number": "890",
        "city": "Nitra",
        "postcode": "94901"
      }
    },
    {
      "parcelId": "100000000894",
      "address": {
        "name": "User 894",
        "street": "Street 894",
        "number": "895",
        "city": "Nitra",
        "postcode": "94901"
      }
    },
    {
      "parcelId": "100000000899",
      "address": {
        "name": "User 899",
        "street": "Street 899",
        "number": "900",
        "city": "Nitra",
        "postcode": "94901"
      }
    },
    {
      "parcelId": "100000000904",
      "address": {
        "name": "User 904",
        "street": "Street 904",
        "number": "905",
        "city": "Nitra",
        "postcode": "94901"
      }
    },
    {
      "parcelId": "100000000909",
      "address": {
        "name": "User 909",
        "street": "Street 909",
        "number": "910",
        "city": "Nitra",
        "postcode": "94901"
      }
    },
    {
      "parcelId": "100000000914",
      "address": {
        "name": "User 914",
        "street": "Street 914",
        "number": "915",
        "city": "Nitra",
        "postcode": "94901"
      }
    },
    {
      "parcelId": "100000000919",
      "address": {
        "name": "User 919",
        "street": "Street 919",
        "number": "920",
        "city": "Nitra",
        "postcode": "94901"
      }
    },
    {
      "parcelId": "100000000924",
      "address": {
        "name": "User 924",
        "street": "Street 924",
        "number": "925",
        "city": "Nitra",
        "postcode": "94901"
      }
    },
    {
      "parcelId": "100000000929",
      "address": {
        "name": "User 929",
        "street": "Street 929",
        "number": "930",
        "city": "Nitra",
        "postcode": "94901"
      }
    },
    {
      "parcelId": "100000000934",
      "address": {
        "name": "User 934",
        "street": "Street 934",
        "number": "935",
        "city": "Nitra",
        "postcode": "94901"
      }
    },
    {
      "parcelId": "100000000939",
      "address": {
        "name": "User 939",
        "street": "Street 939",
        "number": "940",
        "city": "Nitra",
        "postcode": "94901"
      }
    },
    {
      "parcelId": "100000000944",
      "address": {
        "name": "User 944",
        "street": "Street 944",
        "number": "945",
        "city": "Nitra",
        "postcode": "94901"
      }
    },
    {
      "parcelId": "100000000949",
      "address": {
        "name": "User 949",
        "street": "Street 949",
        "number": "950",
        "city": "Nitra",
        "postcode": "94901"
      }
    },
    {
      "parcelId": "100000000954",
      "address": {
        "name": "User 954",
        "street": "Street 954",
        "number": "955",
        "city": "Nitra",
        "postcode": "94901"
      }
    },
    {
      "parcelId": "100000000959",
      "address": {
        "name": "User 959",
        "street": "Street 959",
        "number": "960",
        "city": "Nitra",
        "postcode": "94901"
      }
    },
    {
      "parcelId": "100000000964",
      "address": {
        "name": "User 964",
        "street": "Street 964",
        "number": "965",
        "city": "Nitra",
        "postcode": "94901"
      }
    },
    {
      "parcelId": "100000000969",
      "address": {
        "name": "User 969",
        "street": "Street 969",
        "number": "970",
        "city": "Nitra",
        "postcode": "94901"
      }
    },
    {
      "parcelId": "100000000974",
      "address": {
        "name": "User 974",
        "street": "Street 974",
        "number": "975",
        "city": "Nitra",
        "postcode": "94901"
      }
    },
    {
      "parcelId": "100000000979",
      "address": {
        "name": "User 979",
        "street": "Street 979",
        "number": "980",
        "city": "Nitra",
        "postcode": "94901"
      }
    },
    {
      "parcelId": "100000000984",
      "address": {
        "name": "User 984",
        "street": "Street 984",
        "number": "985",
        "city": "Nitra",
        "postcode": "94901"
      }
    },
    {
      "parcelId": "100000000989",
      "address": {
        "name": "User 989",
        "street": "Street 989",
        "number": "990",
        "city": "Nitra",
        "postcode": "94901"
      }
    },
    {
      "parcelId": "100000000994",
      "address": {
        "name": "User 994",
        "street": "Street 994",
        "number": "995",
        "city": "Nitra",
        "postcode": "94901"
      }
    },
    {
      "parcelId": "100000000999",
      "address": {
        "name": "User 999",
        "street": "Street 999",
        "number": "1000",
        "city": "Nitra",
        "postcode": "94901"
      }
    }
  ]
}